{
  "norad_id": 66758,
  "name": "PIAST-M",
  "history": [
    {
      "epoch": "2026-04-12T22:58:24.573504Z",
      "apogee_km": 508.34054416092386,
      "perigee_km": 505.55139704953126,
      "latitude_deg": 2.2080061438177093e-06,
      "longitude_deg": -8.054301976032404,
      "height_km": 510.96349845144346,
      "semi_major_axis_km": 6885.082970605227,
      "eccentricity": 0.00020255,
      "inclination_deg": 97.4213,
      "raan_deg": 177.703,
      "arg_perigee_deg": 131.844,
      "mean_anomaly_deg": 228.2968,
      "mean_motion_rev_day": 15.19633975
    },
    {
      "epoch": "2026-04-14T11:19:16.055040Z",
      "apogee_km": 508.36731865033016,
      "perigee_km": 505.4703625548382,
      "latitude_deg": 8.19267895734134e-06,
      "longitude_deg": 166.72744785182164,
      "height_km": 510.94289614069936,
      "semi_major_axis_km": 6885.055840602584,
      "eccentricity": 0.00021038,
      "inclination_deg": 97.4213,
      "raan_deg": 179.192,
      "arg_perigee_deg": 130.3074,
      "mean_anomaly_deg": 229.8345,
      "mean_motion_rev_day": 15.19642957
    },
    {
      "epoch": "2026-04-15T17:20:50.213760Z",
      "apogee_km": 508.37096823317916,
      "perigee_km": 505.4255501492962,
      "latitude_deg": -1.39529845091216e-05,
      "longitude_deg": 76.33219458781909,
      "height_km": 510.9077353635676,
      "semi_major_axis_km": 6885.035259191237,
      "eccentricity": 0.0002139,
      "inclination_deg": 97.4211,
      "raan_deg": 180.4222,
      "arg_perigee_deg": 128.7856,
      "mean_anomaly_deg": 231.357,
      "mean_motion_rev_day": 15.19649771
    },
    {
      "epoch": "2026-04-16T12:18:40.023072Z",
      "apogee_km": 508.39742367484087,
      "perigee_km": 505.36939169953894,
      "latitude_deg": 9.554992075483638e-06,
      "longitude_deg": 151.87263720034989,
      "height_km": 510.8926170541041,
      "semi_major_axis_km": 6885.02040768719,
      "eccentricity": 0.0002199,
      "inclination_deg": 97.4212,
      "raan_deg": 181.199,
      "arg_perigee_deg": 127.5337,
      "mean_anomaly_deg": 232.6098,
      "mean_motion_rev_day": 15.19654688
    },
    {
      "epoch": "2026-04-17T21:29:51.742464Z",
      "apogee_km": 508.42833945936127,
      "perigee_km": 505.28589044541604,
      "latitude_deg": 1.1191233631784409e-05,
      "longitude_deg": 14.070683376621306,
      "height_km": 510.85697140812715,
      "semi_major_axis_km": 6884.994114952388,
      "eccentricity": 0.00022821,
      "inclination_deg": 97.4211,
      "raan_deg": 182.5588,
      "arg_perigee_deg": 125.5357,
      "mean_anomaly_deg": 234.6091,
      "mean_motion_rev_day": 15.19663393
    },
    {
      "epoch": "2026-04-18T11:43:13.582560Z",
      "apogee_km": 508.4302580974454,
      "perigee_km": 505.24857279633943,
      "latitude_deg": -3.0495523617937243e-05,
      "longitude_deg": 160.72838158930733,
      "height_km": 510.8356593956012,
      "semi_major_axis_km": 6884.976415446892,
      "eccentricity": 0.00023106,
      "inclination_deg": 97.421,
      "raan_deg": 183.1416,
      "arg_perigee_deg": 124.8761,
      "mean_anomaly_deg": 235.2691,
      "mean_motion_rev_day": 15.19669253
    },
    {
      "epoch": "2026-04-19T19:19:35.066208Z",
      "apogee_km": 508.4517880499725,
      "perigee_km": 505.16766846059454,
      "latitude_deg": 4.678351262584414e-05,
      "longitude_deg": 46.63564439281272,
      "height_km": 510.79758081290487,
      "semi_major_axis_km": 6884.946728255283,
      "eccentricity": 0.0002385,
      "inclination_deg": 97.4205,
      "raan_deg": 184.4364,
      "arg_perigee_deg": 123.2953,
      "mean_anomaly_deg": 236.8511,
      "mean_motion_rev_day": 15.19679082
    },
    {
      "epoch": "2026-04-20T04:48:29.352672Z",
      "apogee_km": 508.459266596823,
      "perigee_km": 505.1544935343918,
      "latitude_deg": 8.187634688623397e-06,
      "longitude_deg": -95.59144637729264,
      "height_km": 510.79162518213406,
      "semi_major_axis_km": 6884.943880065607,
      "eccentricity": 0.00024,
      "inclination_deg": 97.4204,
      "raan_deg": 184.8249,
      "arg_perigee_deg": 122.9331,
      "mean_anomaly_deg": 237.2135,
      "mean_motion_rev_day": 15.19680025
    },
    {
      "epoch": "2026-04-21T15:34:27.551136Z",
      "apogee_km": 508.4589728213541,
      "perigee_km": 505.070224254554,
      "latitude_deg": 2.2975786916789745e-05,
      "longitude_deg": 102.91275892696561,
      "height_km": 510.7240728923666,
      "semi_major_axis_km": 6884.901598537954,
      "eccentricity": 0.0002461,
      "inclination_deg": 97.4201,
      "raan_deg": 186.2494,
      "arg_perigee_deg": 121.0215,
      "mean_anomaly_deg": 239.1262,
      "mean_motion_rev_day": 15.19694024
    },
    {
      "epoch": "2026-04-22T13:41:53.210400Z",
      "apogee_km": 508.474373162494,
      "perigee_km": 505.01403187010965,
      "latitude_deg": 6.195053488658534e-06,
      "longitude_deg": 131.05375325021765,
      "height_km": 510.6906866223719,
      "semi_major_axis_km": 6884.8812025163015,
      "eccentricity": 0.0002513,
      "inclination_deg": 97.4201,
      "raan_deg": 187.1559,
      "arg_perigee_deg": 119.8187,
      "mean_anomaly_deg": 240.3298,
      "mean_motion_rev_day": 15.19700777
    },
    {
      "epoch": "2026-04-23T02:20:24.833760Z",
      "apogee_km": 508.4669294355699,
      "perigee_km": 504.99351392223434,
      "latitude_deg": 0.00010292368558787855,
      "longitude_deg": -58.579217814967265,
      "height_km": 510.65762639025627,
      "semi_major_axis_km": 6884.867221678902,
      "eccentricity": 0.00025225,
      "inclination_deg": 97.42,
      "raan_deg": 187.6739,
      "arg_perigee_deg": 118.9753,
      "mean_anomaly_deg": 241.1736,
      "mean_motion_rev_day": 15.19705406
    },
    {
      "epoch": "2026-04-24T16:15:58.887360Z",
      "apogee_km": 508.4675024205908,
      "perigee_km": 504.90804801180457,
      "latitude_deg": 1.2288816770967563e-05,
      "longitude_deg": 92.52513106006694,
      "height_km": 510.5951561147552,
      "semi_major_axis_km": 6884.824775216198,
      "eccentricity": 0.0002585,
      "inclination_deg": 97.4201,
      "raan_deg": 189.2277,
      "arg_perigee_deg": 117.4868,
      "mean_anomaly_deg": 242.663,
      "mean_motion_rev_day": 15.1971946
    },
    {
      "epoch": "2026-04-25T17:33:00.755136Z",
      "apogee_km": 508.4398377901116,
      "perigee_km": 504.85974865763546,
      "latitude_deg": -2.6530381903507372e-05,
      "longitude_deg": 73.26478244362825,
      "height_km": 510.5029783203889,
      "semi_major_axis_km": 6884.786793223873,
      "eccentricity": 0.00026,
      "inclination_deg": 97.4199,
      "raan_deg": 190.2635,
      "arg_perigee_deg": 115.3822,
      "mean_anomaly_deg": 244.7682,
      "mean_motion_rev_day": 15.19732036
    },
    {
      "epoch": "2026-04-26T21:59:39.459552Z",
      "apogee_km": 508.40858919366565,
      "perigee_km": 504.80621553257333,
      "latitude_deg": -3.425803910728369e-05,
      "longitude_deg": 6.600558493778076,
      "height_km": 510.406780939524,
      "semi_major_axis_km": 6884.744402363119,
      "eccentricity": 0.00026162,
      "inclination_deg": 97.4201,
      "raan_deg": 191.4287,
      "arg_perigee_deg": 113.3397,
      "mean_anomaly_deg": 246.8113,
      "mean_motion_rev_day": 15.19746072
    },
    {
      "epoch": "2026-04-27T18:32:13.479072Z",
      "apogee_km": 508.3924369691904,
      "perigee_km": 504.7586856793241,
      "latitude_deg": 6.740682396071525e-05,
      "longitude_deg": 58.45703587973311,
      "height_km": 510.3586564270649,
      "semi_major_axis_km": 6884.712561324257,
      "eccentricity": 0.0002639,
      "inclination_deg": 97.4202,
      "raan_deg": 192.2706,
      "arg_perigee_deg": 112.5716,
      "mean_anomaly_deg": 247.5799,
      "mean_motion_rev_day": 15.19756615
    },
    {
      "epoch": "2026-04-28T18:14:24.499392Z",
      "apogee_km": 508.3642227084538,
      "perigee_km": 504.719473726208,
      "latitude_deg": -5.105167084754261e-05,
      "longitude_deg": 62.90868381463722,
      "height_km": 510.29213583097084,
      "semi_major_axis_km": 6884.678848217331,
      "eccentricity": 0.0002647,
      "inclination_deg": 97.4203,
      "raan_deg": 193.2416,
      "arg_perigee_deg": 111.3886,
      "mean_anomaly_deg": 248.7631,
      "mean_motion_rev_day": 15.19767778
    },
    {
      "epoch": "2026-04-29T17:56:34.888128Z",
      "apogee_km": 508.3217564673005,
      "perigee_km": 504.69492530172283,
      "latitude_deg": 1.59027659202415e-05,
      "longitude_deg": 67.36294617492987,
      "height_km": 510.2443106983121,
      "semi_major_axis_km": 6884.645340884512,
      "eccentricity": 0.0002634,
      "inclination_deg": 97.4203,
      "raan_deg": 194.2126,
      "arg_perigee_deg": 111.0137,
      "mean_anomaly_deg": 249.138,
      "mean_motion_rev_day": 15.19778873
    },
    {
      "epoch": "2026-04-30T14:29:07.401696Z",
      "apogee_km": 508.3465557798354,
      "perigee_km": 504.6148176089391,
      "latitude_deg": -5.4348458535376636e-05,
      "longitude_deg": 119.22563690757795,
      "height_km": 510.1589892132082,
      "semi_major_axis_km": 6884.617686694387,
      "eccentricity": 0.00027102,
      "inclination_deg": 97.4203,
      "raan_deg": 195.0544,
      "arg_perigee_deg": 108.5243,
      "mean_anomaly_deg": 251.6286,
      "mean_motion_rev_day": 15.1978803
    },
    {
      "epoch": "2026-05-02T10:43:47.851104Z",
      "apogee_km": 508.29722163398765,
      "perigee_km": 504.5203598131966,
      "latitude_deg": -5.9395259747022776e-05,
      "longitude_deg": 175.55283594016547,
      "height_km": 510.00653759547174,
      "semi_major_axis_km": 6884.545790723591,
      "eccentricity": 0.0002743,
      "inclination_deg": 97.42,
      "raan_deg": 196.8672,
      "arg_perigee_deg": 105.7422,
      "mean_anomaly_deg": 254.4115,
      "mean_motion_rev_day": 15.19811837
    }
  ]
}